CCSDS_OMM_VERS = 2.0
CREATION_DATE  = 
ORIGINATOR     = 

OBJECT_NAME    = STARLINK-35930
OBJECT_ID      = 2025-270M
CENTER_NAME    = EARTH
REF_FRAME      = TEME
TIME_SYSTEM    = UTC
MEAN_ELEMENT_THEORY = SGP/SGP4

EPOCH          = 2025-12-08T06:00:02.999808
MEAN_MOTION    = 15.61397768
ECCENTRICITY   = .00014158
INCLINATION    = 42.9988
RA_OF_ASC_NODE = 219.0590
ARG_OF_PERICENTER = 275.0912
MEAN_ANOMALY   = 193.4757

EPHEMERIS_TYPE = 0
CLASSIFICATION_TYPE = U
NORAD_CAT_ID   = 66599
ELEMENT_SET_NO = 999
REV_AT_EPOCH   = 367
BSTAR          = -.25944674E-1
MEAN_MOTION_DOT = -.1997978E-1
MEAN_MOTION_DDOT = 0

CCSDS_OMM_VERS = 2.0
CREATION_DATE  = 
ORIGINATOR     = 

OBJECT_NAME    = STARLINK-35980
OBJECT_ID      = 2025-270N
CENTER_NAME    = EARTH
REF_FRAME      = TEME
TIME_SYSTEM    = UTC
MEAN_ELEMENT_THEORY = SGP/SGP4

EPOCH          = 2025-12-08T06:00:02.999808
MEAN_MOTION    = 15.61398070
ECCENTRICITY   = .0001405
INCLINATION    = 42.9990
RA_OF_ASC_NODE = 219.0541
ARG_OF_PERICENTER = 271.4444
MEAN_ANOMALY   = 199.0355

EPHEMERIS_TYPE = 0
CLASSIFICATION_TYPE = U
NORAD_CAT_ID   = 66600
ELEMENT_SET_NO = 999
REV_AT_EPOCH   = 358
BSTAR          = -.25888068E-1
MEAN_MOTION_DOT = -.1994168E-1
MEAN_MOTION_DDOT = 0

CCSDS_OMM_VERS = 2.0
CREATION_DATE  = 
ORIGINATOR     = 

OBJECT_NAME    = STARLINK-35978
OBJECT_ID      = 2025-270P
CENTER_NAME    = EARTH
REF_FRAME      = TEME
TIME_SYSTEM    = UTC
MEAN_ELEMENT_THEORY = SGP/SGP4

EPOCH          = 2025-12-08T06:00:02.999808
MEAN_MOTION    = 15.61399233
ECCENTRICITY   = .00013818
INCLINATION    = 42.9989
RA_OF_ASC_NODE = 219.0491
ARG_OF_PERICENTER = 273.1688
MEAN_ANOMALY   = 199.2306

EPHEMERIS_TYPE = 0
CLASSIFICATION_TYPE = U
NORAD_CAT_ID   = 66601
ELEMENT_SET_NO = 999
REV_AT_EPOCH   = 351
BSTAR          = -.25962203E-1
MEAN_MOTION_DOT = -.1999236E-1
MEAN_MOTION_DDOT = 0

CCSDS_OMM_VERS = 2.0
CREATION_DATE  = 
ORIGINATOR     = 

OBJECT_NAME    = STARLINK-36050
OBJECT_ID      = 2025-270Q
CENTER_NAME    = EARTH
REF_FRAME      = TEME
TIME_SYSTEM    = UTC
MEAN_ELEMENT_THEORY = SGP/SGP4

EPOCH          = 2025-12-08T06:00:02.999808
MEAN_MOTION    = 15.61398342
ECCENTRICITY   = .00014504
INCLINATION    = 42.9990
RA_OF_ASC_NODE = 219.0441
ARG_OF_PERICENTER = 274.6997
MEAN_ANOMALY   = 199.6185

EPHEMERIS_TYPE = 0
CLASSIFICATION_TYPE = U
NORAD_CAT_ID   = 66602
ELEMENT_SET_NO = 999
REV_AT_EPOCH   = 358
BSTAR          = -.2597318E-1
MEAN_MOTION_DOT = -.1999966E-1
MEAN_MOTION_DDOT = 0

CCSDS_OMM_VERS = 2.0
CREATION_DATE  = 
ORIGINATOR     = 

OBJECT_NAME    = STARLINK-36048
OBJECT_ID      = 2025-270R
CENTER_NAME    = EARTH
REF_FRAME      = TEME
TIME_SYSTEM    = UTC
MEAN_ELEMENT_THEORY = SGP/SGP4

EPOCH          = 2025-12-08T06:00:02.999808
MEAN_MOTION    = 15.61399008
ECCENTRICITY   = .00014409
INCLINATION    = 42.9989
RA_OF_ASC_NODE = 219.0390
ARG_OF_PERICENTER = 276.0036
MEAN_ANOMALY   = 200.2305

EPHEMERIS_TYPE = 0
CLASSIFICATION_TYPE = U
NORAD_CAT_ID   = 66603
ELEMENT_SET_NO = 999
REV_AT_EPOCH   = 358
BSTAR          = -.2597989E-1
MEAN_MOTION_DOT = -.2000458E-1
MEAN_MOTION_DDOT = 0

CCSDS_OMM_VERS = 2.0
CREATION_DATE  = 
ORIGINATOR     = 

OBJECT_NAME    = STARLINK-35977
OBJECT_ID      = 2025-270S
CENTER_NAME    = EARTH
REF_FRAME      = TEME
TIME_SYSTEM    = UTC
MEAN_ELEMENT_THEORY = SGP/SGP4

EPOCH          = 2025-12-08T06:00:02.999808
MEAN_MOTION    = 15.61400207
ECCENTRICITY   = .00013441
INCLINATION    = 42.9990
RA_OF_ASC_NODE = 219.0340
ARG_OF_PERICENTER = 271.6980
MEAN_ANOMALY   = 206.4503

EPHEMERIS_TYPE = 0
CLASSIFICATION_TYPE = U
NORAD_CAT_ID   = 66604
ELEMENT_SET_NO = 999
REV_AT_EPOCH   = 367
BSTAR          = -.25980442E-1
MEAN_MOTION_DOT = -.2000505E-1
MEAN_MOTION_DDOT = 0

CCSDS_OMM_VERS = 2.0
CREATION_DATE  = 
ORIGINATOR     = 

OBJECT_NAME    = STARLINK-36052
OBJECT_ID      = 2025-270T
CENTER_NAME    = EARTH
REF_FRAME      = TEME
TIME_SYSTEM    = UTC
MEAN_ELEMENT_THEORY = SGP/SGP4

EPOCH          = 2025-12-08T06:00:02.999808
MEAN_MOTION    = 15.61399643
ECCENTRICITY   = .00014015
INCLINATION    = 42.9990
RA_OF_ASC_NODE = 219.0298
ARG_OF_PERICENTER = 274.8372
MEAN_ANOMALY   = 205.2318

EPHEMERIS_TYPE = 0
CLASSIFICATION_TYPE = U
NORAD_CAT_ID   = 66605
ELEMENT_SET_NO = 999
REV_AT_EPOCH   = 367
BSTAR          = -.26006926E-1
MEAN_MOTION_DOT = -.2002296E-1
MEAN_MOTION_DDOT = 0

CCSDS_OMM_VERS = 2.0
CREATION_DATE  = 
ORIGINATOR     = 

OBJECT_NAME    = STARLINK-36063
OBJECT_ID      = 2025-270U
CENTER_NAME    = EARTH
REF_FRAME      = TEME
TIME_SYSTEM    = UTC
MEAN_ELEMENT_THEORY = SGP/SGP4

EPOCH          = 2025-12-08T06:00:02.999808
MEAN_MOTION    = 15.61398698
ECCENTRICITY   = .00013132
INCLINATION    = 42.9990
RA_OF_ASC_NODE = 219.0197
ARG_OF_PERICENTER = 270.7757
MEAN_ANOMALY   = 213.1244

EPHEMERIS_TYPE = 0
CLASSIFICATION_TYPE = U
NORAD_CAT_ID   = 66606
ELEMENT_SET_NO = 999
REV_AT_EPOCH   = 367
BSTAR          = -.25948071E-1
MEAN_MOTION_DOT = -.1998195E-1
MEAN_MOTION_DDOT = 0

CCSDS_OMM_VERS = 2.0
CREATION_DATE  = 
ORIGINATOR     = 

OBJECT_NAME    = STARLINK-35993
OBJECT_ID      = 2025-270V
CENTER_NAME    = EARTH
REF_FRAME      = TEME
TIME_SYSTEM    = UTC
MEAN_ELEMENT_THEORY = SGP/SGP4

EPOCH          = 2025-12-08T06:00:02.999808
MEAN_MOTION    = 15.61396553
ECCENTRICITY   = .00013796
INCLINATION    = 42.9989
RA_OF_ASC_NODE = 219.0252
ARG_OF_PERICENTER = 275.2407
MEAN_ANOMALY   = 206.7461

EPHEMERIS_TYPE = 0
CLASSIFICATION_TYPE = U
NORAD_CAT_ID   = 66607
ELEMENT_SET_NO = 999
REV_AT_EPOCH   = 358
BSTAR          = -.25917435E-1
MEAN_MOTION_DOT = -.1996029E-1
MEAN_MOTION_DDOT = 0

CCSDS_OMM_VERS = 2.0
CREATION_DATE  = 
ORIGINATOR     = 

OBJECT_NAME    = STARLINK-36036
OBJECT_ID      = 2025-270W
CENTER_NAME    = EARTH
REF_FRAME      = TEME
TIME_SYSTEM    = UTC
MEAN_ELEMENT_THEORY = SGP/SGP4

EPOCH          = 2025-12-08T06:00:02.999808
MEAN_MOTION    = 15.61397642
ECCENTRICITY   = .00013665
INCLINATION    = 42.9990
RA_OF_ASC_NODE = 219.0151
ARG_OF_PERICENTER = 275.2797
MEAN_ANOMALY   = 210.5411

EPHEMERIS_TYPE = 0
CLASSIFICATION_TYPE = U
NORAD_CAT_ID   = 66608
ELEMENT_SET_NO = 999
REV_AT_EPOCH   = 352
BSTAR          = -.25961974E-1
MEAN_MOTION_DOT = -.1999099E-1
MEAN_MOTION_DDOT = 0

CCSDS_OMM_VERS = 2.0
CREATION_DATE  = 
ORIGINATOR     = 

OBJECT_NAME    = STARLINK-36034
OBJECT_ID      = 2025-270X
CENTER_NAME    = EARTH
REF_FRAME      = TEME
TIME_SYSTEM    = UTC
MEAN_ELEMENT_THEORY = SGP/SGP4

EPOCH          = 2025-12-08T06:00:02.999808
MEAN_MOTION    = 15.61397123
ECCENTRICITY   = .00012992
INCLINATION    = 42.9990
RA_OF_ASC_NODE = 219.0110
ARG_OF_PERICENTER = 273.5331
MEAN_ANOMALY   = 214.2059

EPHEMERIS_TYPE = 0
CLASSIFICATION_TYPE = U
NORAD_CAT_ID   = 66609
ELEMENT_SET_NO = 999
REV_AT_EPOCH   = 352
BSTAR          = -.25956655E-1
MEAN_MOTION_DOT = -.1998655E-1
MEAN_MOTION_DDOT = 0

CCSDS_OMM_VERS = 2.0
CREATION_DATE  = 
ORIGINATOR     = 

OBJECT_NAME    = STARLINK-35680
OBJECT_ID      = 2025-270Y
CENTER_NAME    = EARTH
REF_FRAME      = TEME
TIME_SYSTEM    = UTC
MEAN_ELEMENT_THEORY = SGP/SGP4

EPOCH          = 2025-12-08T06:00:02.999808
MEAN_MOTION    = 15.61397348
ECCENTRICITY   = .00013507
INCLINATION    = 42.9989
RA_OF_ASC_NODE = 219.0058
ARG_OF_PERICENTER = 275.9777
MEAN_ANOMALY   = 213.6771

EPHEMERIS_TYPE = 0
CLASSIFICATION_TYPE = U
NORAD_CAT_ID   = 66610
ELEMENT_SET_NO = 999
REV_AT_EPOCH   = 378
BSTAR          = -.25935286E-1
MEAN_MOTION_DOT = -.1997267E-1
MEAN_MOTION_DDOT = 0

