STARLINK-35930          
1 66599U 25270M   25342.25003472 -.01997978  00000+0 -25945-1 0  9997
2 66599  42.9988 219.0590 0001415 275.0912 193.4757 15.61397768  3675
STARLINK-35980          
1 66600U 25270N   25342.25003472 -.01994168  00000+0 -25888-1 0  9994
2 66600  42.9990 219.0541 0001405 271.4444 199.0355 15.61398070  3589
STARLINK-35978          
1 66601U 25270P   25342.25003472 -.01999236  00000+0 -25962-1 0  9999
2 66601  42.9989 219.0491 0001381 273.1688 199.2306 15.61399233  3517
STARLINK-36050          
1 66602U 25270Q   25342.25003472 -.01999966  00000+0 -25973-1 0  9992
2 66602  42.9990 219.0441 0001450 274.6997 199.6185 15.61398342  3587
STARLINK-36048          
1 66603U 25270R   25342.25003472 -.02000458  00000+0 -25980-1 0  9991
2 66603  42.9989 219.0390 0001440 276.0036 200.2305 15.61399008  3581
STARLINK-35977          
1 66604U 25270S   25342.25003472 -.02000505  00000+0 -25980-1 0  9995
2 66604  42.9990 219.0340 0001344 271.6980 206.4503 15.61400207  3673
STARLINK-36052          
1 66605U 25270T   25342.25003472 -.02002296  00000+0 -26007-1 0  9996
2 66605  42.9990 219.0298 0001401 274.8372 205.2318 15.61399643  3672
STARLINK-36063          
1 66606U 25270U   25342.25003472 -.01998195  00000+0 -25948-1 0  9991
2 66606  42.9990 219.0197 0001313 270.7757 213.1244 15.61398698  3670
STARLINK-35993          
1 66607U 25270V   25342.25003472 -.01996029  00000+0 -25917-1 0  9992
2 66607  42.9989 219.0252 0001379 275.2407 206.7461 15.61396553  3582
STARLINK-36036          
1 66608U 25270W   25342.25003472 -.01999099  00000+0 -25962-1 0  9993
2 66608  42.9990 219.0151 0001366 275.2797 210.5411 15.61397642  3523
STARLINK-36034          
1 66609U 25270X   25342.25003472 -.01998655  00000+0 -25957-1 0  9995
2 66609  42.9990 219.0110 0001299 273.5331 214.2059 15.61397123  3522
STARLINK-35680          
1 66610U 25270Y   25342.25003472 -.01997267  00000+0 -25935-1 0  9991
2 66610  42.9989 219.0058 0001350 275.9777 213.6771 15.61397348  3782
